ENVISAT                 
1 27386U 02009A   26061.85866175  .00000157  00000+0  64556-4 0  9990
2 27386  98.3717  15.6191 0001346  84.9534 290.4970 14.39033896258195
